{
  "type": "FeatureCollection",
  "features": [
    {
      "type": "Feature",
      "properties": {
        "norad_id": 24876,
        "name": "GPS BIIR-2  (PRN 13)",
        "group": "gps-ops",
        "lat": -55.391635453473455,
        "lon": 26.95072898185597,
        "alt_km": 20385.611289237975,
        "timestamp": "2025-12-14T14:39:29.629218+00:00",
        "meta_object_name": "GPS BIIR-2  (PRN 13)",
        "meta_object_id": "1997-035A",
        "meta_epoch": "2025-12-13T17:30:57.892608",
        "meta_mean_motion": 2.00563655,
        "meta_eccentricity": 0.00967837,
        "meta_inclination": 55.8957,
        "meta_ra_of_asc_node": 105.8301,
        "meta_arg_of_pericenter": 56.998,
        "meta_mean_anomaly": 303.9052,
        "meta_ephemeris_type": 0,
        "meta_classification_type": "U",
        "meta_norad_cat_id": 24876,
        "meta_element_set_no": 999,
        "meta_rev_at_epoch": 20823,
        "meta_bstar": 0,
        "meta_mean_motion_dot": 0,
        "meta_mean_motion_ddot": 0,
        "tle_line1": "1 24876U 97035A   25347.72983672  .00000000  00000+0  00000+0 0  9994",
        "tle_line2": "2 24876  55.8957 105.8301 0096783  56.9980 303.9052  2.00563655208235"
      },
      "geometry": {
        "type": "Point",
        "coordinates": [
          26.95072898185597,
          -55.391635453473455
        ]
      }
    },
    {
      "type": "Feature",
      "properties": {
        "norad_id": 26360,
        "name": "GPS BIIR-4  (PRN 20)",
        "group": "gps-ops",
        "lat": 7.567212876886914,
        "lon": 32.10647488436053,
        "alt_km": 20243.417751054203,
        "timestamp": "2025-12-14T14:39:29.629246+00:00",
        "meta_object_name": "GPS BIIR-4  (PRN 20)",
        "meta_object_id": "2000-025A",
        "meta_epoch": "2025-12-13T20:04:22.857024",
        "meta_mean_motion": 2.00567674,
        "meta_eccentricity": 0.00388834,
        "meta_inclination": 55.0459,
        "meta_ra_of_asc_node": 26.7934,
        "meta_arg_of_pericenter": 242.101,
        "meta_mean_anomaly": 287.6867,
        "meta_ephemeris_type": 0,
        "meta_classification_type": "U",
        "meta_norad_cat_id": 26360,
        "meta_element_set_no": 999,
        "meta_rev_at_epoch": 18755,
        "meta_bstar": 0,
        "meta_mean_motion_dot": -9.7e-07,
        "meta_mean_motion_ddot": 0,
        "tle_line1": "1 26360U 00025A   25347.83637566 -.00000097  00000+0  00000+0 0  9994",
        "tle_line2": "2 26360  55.0459  26.7934 0038883 242.1010 287.6867  2.00567674187555"
      },
      "geometry": {
        "type": "Point",
        "coordinates": [
          32.10647488436053,
          7.567212876886914
        ]
      }
    },
    {
      "type": "Feature",
      "properties": {
        "norad_id": 26407,
        "name": "GPS BIIR-5  (PRN 22)",
        "group": "gps-ops",
        "lat": -21.873173439813538,
        "lon": 58.89360450838055,
        "alt_km": 20208.725095949383,
        "timestamp": "2025-12-14T14:39:29.629263+00:00",
        "meta_object_name": "GPS BIIR-5  (PRN 22)",
        "meta_object_id": "2000-040A",
        "meta_epoch": "2025-12-13T20:00:26.123616",
        "meta_mean_motion": 2.00568017,
        "meta_eccentricity": 0.01259554,
        "meta_inclination": 54.8905,
        "meta_ra_of_asc_node": 222.5255,
        "meta_arg_of_pericenter": 301.8318,
        "meta_mean_anomaly": 65.5895,
        "meta_ephemeris_type": 0,
        "meta_classification_type": "U",
        "meta_norad_cat_id": 26407,
        "meta_element_set_no": 999,
        "meta_rev_at_epoch": 18623,
        "meta_bstar": 0,
        "meta_mean_motion_dot": 2.9e-07,
        "meta_mean_motion_ddot": 0,
        "tle_line1": "1 26407U 00040A   25347.83363569  .00000029  00000+0  00000+0 0  9996",
        "tle_line2": "2 26407  54.8905 222.5255 0125955 301.8318  65.5895  2.00568017186233"
      },
      "geometry": {
        "type": "Point",
        "coordinates": [
          58.89360450838055,
          -21.873173439813538
        ]
      }
    },
    {
      "type": "Feature",
      "properties": {
        "norad_id": 27663,
        "name": "GPS BIIR-8  (PRN 16)",
        "group": "gps-ops",
        "lat": -13.998688237660446,
        "lon": -147.769541522672,
        "alt_km": 20037.903195772244,
        "timestamp": "2025-12-14T14:39:29.629277+00:00",
        "meta_object_name": "GPS BIIR-8  (PRN 16)",
        "meta_object_id": "2003-005A",
        "meta_epoch": "2025-12-13T09:15:26.891424",
        "meta_mean_motion": 2.00570905,
        "meta_eccentricity": 0.01474873,
        "meta_inclination": 54.9232,
        "meta_ra_of_asc_node": 222.3526,
        "meta_arg_of_pericenter": 51.8083,
        "meta_mean_anomaly": 128.0829,
        "meta_ephemeris_type": 0,
        "meta_classification_type": "U",
        "meta_norad_cat_id": 27663,
        "meta_element_set_no": 999,
        "meta_rev_at_epoch": 16758,
        "meta_bstar": 0,
        "meta_mean_motion_dot": 2.3e-07,
        "meta_mean_motion_ddot": 0,
        "tle_line1": "1 27663U 03005A   25347.38572791  .00000023  00000+0  00000+0 0  9998",
        "tle_line2": "2 27663  54.9232 222.3526 0147487  51.8083 128.0829  2.00570905167584"
      },
      "geometry": {
        "type": "Point",
        "coordinates": [
          -147.769541522672,
          -13.998688237660446
        ]
      }
    },
    {
      "type": "Feature",
      "properties": {
        "norad_id": 28190,
        "name": "GPS BIIR-11 (PRN 19)",
        "group": "gps-ops",
        "lat": 29.80406624487324,
        "lon": 79.47977607134855,
        "alt_km": 19917.272653620646,
        "timestamp": "2025-12-14T14:39:29.629289+00:00",
        "meta_object_name": "GPS BIIR-11 (PRN 19)",
        "meta_object_id": "2004-009A",
        "meta_epoch": "2025-12-11T22:20:18.324960",
        "meta_mean_motion": 2.00560799,
        "meta_eccentricity": 0.0108335,
        "meta_inclination": 54.9863,
        "meta_ra_of_asc_node": 283.2515,
        "meta_arg_of_pericenter": 167.6362,
        "meta_mean_anomaly": 200.4215,
        "meta_ephemeris_type": 0,
        "meta_classification_type": "U",
        "meta_norad_cat_id": 28190,
        "meta_element_set_no": 999,
        "meta_rev_at_epoch": 15919,
        "meta_bstar": 0,
        "meta_mean_motion_dot": -7.6e-07,
        "meta_mean_motion_ddot": 0,
        "tle_line1": "1 28190U 04009A   25345.93076765 -.00000076  00000+0  00000+0 0  9997",
        "tle_line2": "2 28190  54.9863 283.2515 0108335 167.6362 200.4215  2.00560799159191"
      },
      "geometry": {
        "type": "Point",
        "coordinates": [
          79.47977607134855,
          29.80406624487324
        ]
      }
    },
    {
      "type": "Feature",
      "properties": {
        "norad_id": 28474,
        "name": "GPS BIIR-13 (PRN 02)",
        "group": "gps-ops",
        "lat": -17.4837488081028,
        "lon": 164.95473542098307,
        "alt_km": 20315.539139668606,
        "timestamp": "2025-12-14T14:39:29.629302+00:00",
        "meta_object_name": "GPS BIIR-13 (PRN 02)",
        "meta_object_id": "2004-045A",
        "meta_epoch": "2025-12-12T12:01:27.782400",
        "meta_mean_motion": 2.00569519,
        "meta_eccentricity": 0.0170757,
        "meta_inclination": 55.2408,
        "meta_ra_of_asc_node": 332.4152,
        "meta_arg_of_pericenter": 309.2412,
        "meta_mean_anomaly": 170.6572,
        "meta_ephemeris_type": 0,
        "meta_classification_type": "U",
        "meta_norad_cat_id": 28474,
        "meta_element_set_no": 999,
        "meta_rev_at_epoch": 15468,
        "meta_bstar": 0,
        "meta_mean_motion_dot": -8.8e-07,
        "meta_mean_motion_ddot": 0,
        "tle_line1": "1 28474U 04045A   25346.50101600 -.00000088  00000+0  00000+0 0  9996",
        "tle_line2": "2 28474  55.2408 332.4152 0170757 309.2412 170.6572  2.00569519154688"
      },
      "geometry": {
        "type": "Point",
        "coordinates": [
          164.95473542098307,
          -17.4837488081028
        ]
      }
    },
    {
      "type": "Feature",
      "properties": {
        "norad_id": 28874,
        "name": "GPS BIIRM-1 (PRN 17)",
        "group": "gps-ops",
        "lat": 15.350577843614134,
        "lon": 89.54604508543703,
        "alt_km": 20412.983548144686,
        "timestamp": "2025-12-14T14:39:29.629314+00:00",
        "meta_object_name": "GPS BIIRM-1 (PRN 17)",
        "meta_object_id": "2005-038A",
        "meta_epoch": "2025-12-10T14:00:21.521088",
        "meta_mean_motion": 2.00578486,
        "meta_eccentricity": 0.0131701,
        "meta_inclination": 55.0338,
        "meta_ra_of_asc_node": 280.7877,
        "meta_arg_of_pericenter": 293.4518,
        "meta_mean_anomaly": 200.7371,
        "meta_ephemeris_type": 0,
        "meta_classification_type": "U",
        "meta_norad_cat_id": 28874,
        "meta_element_set_no": 999,
        "meta_rev_at_epoch": 14805,
        "meta_bstar": 0,
        "meta_mean_motion_dot": -6.4e-07,
        "meta_mean_motion_ddot": 0,
        "tle_line1": "1 28874U 05038A   25344.58358242 -.00000064  00000+0  00000+0 0  9999",
        "tle_line2": "2 28874  55.0338 280.7877 0131701 293.4518 200.7371  2.00578486148057"
      },
      "geometry": {
        "type": "Point",
        "coordinates": [
          89.54604508543703,
          15.350577843614134
        ]
      }
    }
  ]
}